[{"OBJECT_NAME":"STARLINK-35434","OBJECT_ID":"2025-245N","EPOCH":"2026-03-09T20:57:17.623296","MEAN_MOTION":15.30207836,"ECCENTRICITY":7.782e-5,"INCLINATION":53.1567,"RA_OF_ASC_NODE":283.1123,"ARG_OF_PERICENTER":94.0216,"MEAN_ANOMALY":266.0874,"EPHEMERIS_TYPE":0,"CLASSIFICATION_TYPE":"U","NORAD_CAT_ID":66246,"ELEMENT_SET_NO":999,"REV_AT_EPOCH":2107,"BSTAR":0.00082494665,"MEAN_MOTION_DOT":0.00024159,"MEAN_MOTION_DDOT":0},{"OBJECT_NAME":"KUIPER-00213","OBJECT_ID":"2026-030P","EPOCH":"2026-03-09T22:00:01.999584","MEAN_MOTION":15.32626943,"ECCENTRICITY":0.00152813,"INCLINATION":51.8816,"RA_OF_ASC_NODE":218.5142,"ARG_OF_PERICENTER":64.2462,"MEAN_ANOMALY":206.8369,"EPHEMERIS_TYPE":0,"CLASSIFICATION_TYPE":"U","NORAD_CAT_ID":67777,"ELEMENT_SET_NO":999,"REV_AT_EPOCH":502,"BSTAR":0.0016072376,"MEAN_MOTION_DOT":0.00051551,"MEAN_MOTION_DDOT":0}]
